BEIDOU-2 IGSO-5         
1 37948U 11073A   26157.80025230 -.00000158  00000+0  00000+0 0  9997
2 37948  47.6984 271.6762 0113548 221.6933 141.6840  1.00275467 53037
LUCH-5A                 
1 37951U 11074B   26157.59434360 -.00000037  00000+0  00000+0 0  9992
2 37951   8.7265  73.9638 0002402  12.4500 189.5697  1.00269862 52940
BEIDOU-2 G5             
1 38091U 12008A   26157.92945019  .00000071  00000+0  00000+0 0  9998
2 38091   3.5477  69.7592 0009494 276.3012 302.5758  1.00269909 52265
BEIDOU-2 M3             
1 38250U 12018A   26157.44952456 -.00000054  00000+0  00000+0 0  9998
2 38250  55.7678 305.2371 0019926 274.9338  84.8288  1.86230163 95745
BEIDOU-2 M4             
1 38251U 12018B   26157.38180917 -.00000054  00000+0  00000+0 0  9997
2 38251  55.6678 304.4539 0011099 277.6909  82.1732  1.86229774 95740
SES-5                   
1 38652U 12036A   26157.91880316  .00000046  00000+0  00000+0 0  9991
2 38652   0.0517 308.6088 0001957 138.2057 144.2649  1.00265273 44352
BEIDOU-2 M6             
1 38775U 12050B   26157.62855436 -.00000039  00000+0  00000+0 0  9999
2 38775  56.5352  63.2436 0013904 355.6952   4.3211  1.86230997 93114
GSAT-10                 
1 38779U 12051B   26157.93421688 -.00000151  00000+0  00000+0 0  9991
2 38779   0.0175 262.3536 0008014 186.5935 225.7485  1.00271851 49995
NAVSTAR 67 (USA 239)    
1 38833U 12053A   26157.34775955  .00000087  00000+0  00000+0 0  9995
2 38833  53.5839 144.0434 0179696  65.6043 296.2529  2.00567344 99220
GSAT0103 (GALILEO-FM3)  
1 38857U 12055A   26156.15727767  .00000018  00000+0  00000+0 0  9993
2 38857  55.7989 101.8756 0005166 302.6849  57.2312  1.70473498 84807
BEIDOU-2 G6             
1 38953U 12059A   26157.86315203 -.00000162  00000+0  00000+0 0  9992
2 38953   4.3949  73.6310 0010389 324.3391 252.0259  1.00275124 49803
LUCH-5B                 
1 38977U 12061A   26156.98739819 -.00000127  00000+0  00000+0 0  9997
2 38977  10.4571  49.9907 0001666 137.7014  45.8723  1.00274220 49497
COSMOS 2485 [GLONASS-M] 
1 39155U 13019A   26157.11703028 -.00000007  00000+0  00000+0 0  9996
2 39155  65.4139  73.9758 0023482 234.9271 124.8751  2.13103501102040
NAVSTAR 68 (USA 242)    
1 39166U 13023A   26156.21726920 -.00000027  00000+0  00000+0 0  9991
2 39166  54.5137 269.4614 0141622  50.9838 310.2894  2.00563607 95643
IRNSS-1A                
1 39199U 13034A   26142.85947303  .00000059  00000+0  00000+0 0  9998
2 39199  35.6649  64.2334 0016618 185.3754 355.4646  1.00280263 47111
NAVSTAR 69 (USA 248)    
1 39533U 14008A   26157.21594932  .00000088  00000+0  00000+0 0  9996
2 39533  53.6529 149.7672 0084234 231.0946 128.1524  2.00559138 89460
ASTRA 5B                
1 39617U 14011B   26157.99234604  .00000151  00000+0  00000+0 0  9996
2 39617   0.0586 315.8614 0002187 107.7215 212.5755  1.00269587 44560
COSMOS 2492 [GLONASS-M] 
1 39620U 14012A   26157.54517756 -.00000029  00000+0  00000+0 0  9999
2 39620  65.3042 314.2975 0010548 326.7027  33.2274  2.13103531 95013
IRNSS-1B                
1 39635U 14017A   26139.86086405  .00000103  00000+0  00000+0 0  9999
2 39635  28.9733 240.8911 0024226 185.2284 176.5740  1.00280229 44519
LUCH-5V                 
1 39727U 14023A   26157.85233410 -.00000254  00000+0  00000+0 0  9995
2 39727   5.1075  69.8532 0002824  28.9558 198.0024  1.00268278 44257
NAVSTAR 70 (USA 251)    
1 39741U 14026A   26157.49137296 -.00000060  00000+0  00000+0 0  9994
2 39741  56.5037 331.9339 0038258 326.7311  33.0353  2.00561837 88322
COSMOS 2500 [GLONASS-M] 
1 40001U 14032A   26156.30730628 -.00000032  00000+0  00000+0 0  9998
2 40001  65.2399 314.0875 0006921 182.6987 177.2913  2.13106228 93207
NAVSTAR 71 (USA 256)    
1 40105U 14045A   26157.08442537  .00000007  00000+0  00000+0 0  9993
2 40105  55.3463  88.9073 0032861 118.4040 241.9212  2.00557729 85855
GSAT0201 (GALILEO 5)    
1 40128U 14050A   26153.86432925 -.00000050  00000+0  00000+0 0  9995
2 40128  48.8915 274.0236 1672406 178.8372 181.6513  1.85520153 78053
GSAT0202 (GALILEO 6)    
1 40129U 14050B   26156.81483642 -.00000047  00000+0  00000+0 0  9992
2 40129  48.9049 272.9882 1674073 179.6779 180.4916  1.85520656 80278
IRNSS-1C                
1 40269U 14061A   26157.85165249 -.00000148  00000+0  00000+0 0  9996
2 40269   6.4923  89.1238 0022605   1.2769 194.4828  1.00270962 42580
NAVSTAR 72 (USA 258)    
1 40294U 14068A   26157.45380235 -.00000067  00000+0  00000+0 0  9991
2 40294  56.9803  31.3683 0066799  70.1816 290.5925  2.00575579 84998
COSMOS 2501 [GLONASS-K] 
1 40315U 14075A   26157.50776105  .00000080  00000+0  00000+0 0  9998
2 40315  63.6156 190.7418 0022449 212.1296 147.7991  2.13101451 89627
NAVSTAR 73 (USA 260)    
1 40534U 15013A   26156.09596329  .00000046  00000+0  00000+0 0  9997
2 40534  53.1687 204.6778 0109301  40.1042 320.7783  2.00552074 81584
GSAT0203 (GALILEO 7)    
1 40544U 15017A   26156.48117556 -.00000068  00000+0  00000+0 0  9991
2 40544  56.7910 341.9146 0002094 282.9852  77.0035  1.70476258 69003
GSAT0204 (GALILEO 8)    
1 40545U 15017B   26156.15035755 -.00000069  00000+0  00000+0 0  9997
2 40545  56.7982 341.9422 0001822 253.1460 106.8459  1.70475724 32045
